0 SENTINEL 2A
1 40697U 15028A   22307.07469379  .00000161  00000-0  78157-4 0  9991
2 40697  98.5640  19.8457 0001113  88.3957 271.7355 14.30816988384676
0 SENTINEL 2A
1 40697U 15028A   22307.49427433  .00000159  00000-0  77345-4 0  9997
2 40697  98.5639  20.2590 0001108  88.2079 271.9229 14.30817153384730
0 SENTINEL 2A
1 40697U 15028A   22307.49427433  .00000159  00000-0  77345-4 0  9997
2 40697  98.5639  20.2590 0001108  88.2079 271.9229 14.30817153384730
0 SENTINEL 2A
1 40697U 15028A   22307.84392482 -.00000063  00000-0 -74825-5 0  9998
2 40697  98.5633  20.6034 0001148  98.0517 262.0789 14.30816502384785
0 SENTINEL 2A
1 40697U 15028A   22307.84392482 -.00000063  00000-0 -74825-5 0  9998
2 40697  98.5633  20.6034 0001148  98.0517 262.0789 14.30816502384785
0 SENTINEL 2A
1 40697U 15028A   22308.19357572  .00000046  00000-0  34304-4 0  9994
2 40697  98.5637  20.9479 0001146  98.2700 261.8635 14.30816979384830
0 SENTINEL 2A
1 40697U 15028A   22308.47329553  .00000214  00000-0  98202-4 0  9997
2 40697  98.5638  21.2239 0001190 107.0702 253.0642 14.30817709384876
0 SENTINEL 2A
1 40697U 15028A   22308.47329553  .00000214  00000-0  98202-4 0  9997
2 40697  98.5638  21.2239 0001190 107.0702 253.0642 14.30817709384876
0 SENTINEL 2A
1 40697U 15028A   22308.82294522  .00000099  00000-0  54408-4 0  9994
2 40697  98.5638  21.5683 0001228 107.3451 252.7845 14.30817353384920
0 SENTINEL 2A
1 40697U 15028A   22308.82294522  .00000099  00000-0  54408-4 0  9994
2 40697  98.5638  21.5683 0001228 107.3451 252.7845 14.30817353384920
0 SENTINEL 2A
1 40697U 15028A   22309.17259611  .00000433  00000-0  18188-3 0  9999
2 40697  98.5642  21.9123 0001218 105.5491 254.5849 14.30818540384979
0 SENTINEL 2A
1 40697U 15028A   22309.52224582  .00000558  00000-0  22940-3 0  9996
2 40697  98.5640  22.2571 0001210 108.2967 251.8377 14.30819435385025
0 SENTINEL 2A
1 40697U 15028A   22309.73203521  .00000281  00000-0  12383-3 0  9992
2 40697  98.5640  22.4637 0001169 106.8291 253.2999 14.30818787385055
0 SENTINEL 2A
1 40697U 15028A   22309.87189567  .00000123  00000-0  63694-4 0  9997
2 40697  98.5641  22.6016 0001174 105.7515 254.3764 14.30817993385074
0 SENTINEL 2A
1 40697U 15028A   22310.08168653  .00000193  00000-0  90428-4 0  9997
2 40697  98.5641  22.8082 0001156 104.4622 255.6696 14.30818326385107
0 SENTINEL 2A
1 40697U 15028A   22310.50126653  .00000060  00000-0  39422-4 0  9998
2 40697  98.5641  23.2215 0001105  96.6713 263.4584 14.30818341385163
0 SENTINEL 2A
1 40697U 15028A   22310.50126653  .00000060  00000-0  39422-4 0  9998
2 40697  98.5641  23.2215 0001105  96.6713 263.4584 14.30818341385163
0 SENTINEL 2A
1 40697U 15028A   22310.78098684 -.00000001  00000-0  16246-4 0  9995
2 40697  98.5641  23.4972 0001086  94.5366 265.5939 14.30818348385203
0 SENTINEL 2B
1 42063U 17013A   22307.10958222  .00000138  00000-0  69420-4 0  9997
2 42063  98.5686  19.8598 0001203 105.9004 254.2317 14.30822137295599
0 SENTINEL 2B
1 42063U 17013A   22307.31937169  .00000146  00000-0  72354-4 0  9996
2 42063  98.5684  20.0666 0001180 105.6974 254.4354 14.30822329295624
0 SENTINEL 2B
1 42063U 17013A   22307.52916094  .00000147  00000-0  72728-4 0  9999
2 42063  98.5685  20.2734 0001195 105.5915 254.5403 14.30822432295657
0 SENTINEL 2B
1 42063U 17013A   22307.73895040  .00000151  00000-0  74420-4 0  9995
2 42063  98.5684  20.4800 0001191 104.5024 255.6293 14.30822560295682
0 SENTINEL 2B
1 42063U 17013A   22307.87881003 -.00000174  00000-0 -49633-4 0  9999
2 42063  98.5678  20.6178 0001238 120.1344 239.9968 14.30821435295703
0 SENTINEL 2B
1 42063U 17013A   22308.08859959 -.00000437  00000-0 -15008-3 0  9998
2 42063  98.5677  20.8248 0001249 119.8175 240.3112 14.30820531295737
0 SENTINEL 2B
1 42063U 17013A   22308.43825055 -.00001414  00000-0 -52298-3 0  9995
2 42063  98.5681  21.1693 0001297 116.1956 243.9315 14.30817036295785
0 SENTINEL 2B
1 42063U 17013A   22308.50818155 -.00001845  00000-0 -68744-3 0  9997
2 42063  98.5681  21.2383 0001220 114.4100 245.7185 14.30815607295798
0 SENTINEL 2B
1 42063U 17013A   22308.71797263 -.00002648  00000-0 -99410-3 0  9992
2 42063  98.5679  21.4446 0001097 111.4543 248.6702 14.30812361295822
0 SENTINEL 2B
1 42063U 17013A   22308.92776479 -.00003086  00000-0 -11615-2 0  9998
2 42063  98.5682  21.6515 0001175 114.4384 245.6886 14.30809731295858
0 SENTINEL 2B
1 42063U 17013A   22309.06762646 -.00003254  00000-0 -12256-2 0  9994
2 42063  98.5682  21.7893 0001187 114.7851 245.3454 14.30808530295879
0 SENTINEL 2B
1 42063U 17013A   22309.48721003 -.00003216  00000-0 -12112-2 0  9991
2 42063  98.5683  22.2031 0001166 115.8474 244.2888 14.30806763295932
0 SENTINEL 2B
1 42063U 17013A   22309.69700083 -.00002789  00000-0 -10481-2 0  9990
2 42063  98.5684  22.4099 0001201 115.0764 245.0593 14.30807159295968
0 SENTINEL 2B
1 42063U 17013A   22309.90679173 -.00001996  00000-0 -74508-3 0  9999
2 42063  98.5683  22.6169 0001202 107.4525 252.6802 14.30807995295996
0 SENTINEL 2B
1 42063U 17013A   22310.11658320 -.00001263  00000-0 -46525-3 0  9990
2 42063  98.5682  22.8236 0001236 109.5517 250.5854 14.30809415296021
0 SENTINEL 2B
1 42063U 17013A   22310.46623296 -.00000018  00000-0  99382-5 0  9999
2 42063  98.5682  23.1680 0001216 116.8067 243.3271 14.30812514296079
0 SENTINEL 2B
1 42063U 17013A   22310.46623296 -.00000018  00000-0  99382-5 0  9999
2 42063  98.5682  23.1680 0001216 116.8067 243.3271 14.30812514296079
0 SENTINEL 2B
1 42063U 17013A   22310.74595353  .00000048  00000-0  34958-4 0  9991
2 42063  98.5684  23.4438 0001257 115.5286 244.6023 14.30812763296119
